IRIDIUM 64 [+]          
1 25287U 98021C   17065.52702108 -.00000022  00000-0 -14902-4 0  9994
2 25287  86.3919 266.8515 0001902  90.2456 269.8958 14.34216390990281
IRIDIUM 65 [+]          
1 25288U 98021D   17065.53336565 -.00000022  00000-0 -14757-4 0  9994
2 25288  86.3918 266.7541 0001879  81.3833 278.7576 14.34216366990303
IRIDIUM 66 [+]          
1 25289U 98021E   17065.53970714 -.00000025  00000-0 -16037-4 0  9991
2 25289  86.3917 266.6556 0001980  82.6047 277.5374 14.34216421990295
IRIDIUM 67 [+]          
1 25290U 98021F   17065.47628119  .00000022  00000-0  61556-6 0  9998
2 25290  86.3918 266.8173 0002037  88.4173 271.7256 14.34216654990308
IRIDIUM 68 [+]          
1 25291U 98021G   17065.55237440 -.00000017  00000-0 -13250-4 0  9993
2 25291  86.3920 266.9021 0001919  85.9510 274.1906 14.34217707990286
IRIDIUM 69 [-]          
1 25319U 98026A   17065.59037625  .00000087  00000-0  21859-4 0  9995
2 25319  86.3966 288.8843 0000598 149.2414 210.8819 14.38654242988281
IRIDIUM 71 [-]          
1 25320U 98026B   17065.19298055  .00000135  00000-0  37117-4 0  9997
2 25320  86.3944 284.9888 0001927  28.1848 331.9455 14.39066730988650
IRIDIUM 70 [+]          
1 25342U 98032A   17065.51352587  .00000021  00000-0  41688-6 0  9999
2 25342  86.3923 267.1557 0002056  85.0706 303.6161 14.34216746984381
IRIDIUM 72 [+]          
1 25343U 98032B   17065.14645979 -.00000025  00000-0 -15863-4 0  9999
2 25343  86.3919 266.9274 0001955  83.8230 276.3188 14.34216836984335
IRIDIUM 73 [-]          
1 25344U 98032C   17065.52579059  .00000163  00000-0  37616-4 0  9998
2 25344  86.4397 246.2962 0002737  80.4008 279.7505 14.49014773992686
IRIDIUM 74 [S]          
1 25345U 98032D   17065.55466854 -.00000049  00000-0 -20933-4 0  9999
2 25345  86.4434 267.1582 0007430  26.9394   0.6720 14.42445245987945
IRIDIUM 75 [+]          
1 25346U 98032E   17065.57598640  .00000020  00000-0  21262-6 0  9996
2 25346  86.3920 266.9967 0002047  88.4833 295.2713 14.34216990984966
IRIDIUM 3 [+]           
1 25431U 98048A   17065.23356286  .00000108  00000-0  31445-4 0  9998
2 25431  86.3947 298.7572 0002020  81.3178  56.0703 14.34221528970858
IRIDIUM 76 [+]          
1 25432U 98048B   17065.57941961  .00000110  00000-0  32069-4 0  9992
2 25432  86.3943 298.3699 0002190  84.3049 299.5459 14.34222111970894
IRIDIUM 82 [+]          
1 25467U 98051A   17065.54420705  .00000029  00000-0  34514-5 0  9996
2 25467  86.3903  65.0543 0001901  94.6804 265.4609 14.34215882971906
IRIDIUM 81 [+]          
1 25468U 98051B   17065.53784302  .00000081  00000-0  21708-4 0  9990
2 25468  86.3926  64.6922 0002308  92.2148 267.9312 14.34213761968127
IRIDIUM 80 [+]          
1 25469U 98051C   17065.60908944  .00000056  00000-0  12911-4 0  9997
2 25469  86.3930  64.9457 0002329  93.1169  13.0877 14.34215755968137
IRIDIUM 77 [+]          
1 25471U 98051E   17065.55416914  .00000062  00000-0  15019-4 0  9994
2 25471  86.3921  64.5455 0002284  87.0802  63.0372 14.34215711973324
IRIDIUM 2 [-]           
1 25527U 98066A   17065.57373456  .00001169  00000-0  58423-4 0  9992
2 25527  85.5272  92.8201 0011795 104.2261 256.0290 15.16230537  2327
IRIDIUM 86 [+]          
1 25528U 98066B   17065.48374072  .00000125  00000-0  37660-4 0  9999
2 25528  86.3963  32.7297 0002141  82.3451 277.7988 14.34215289964646
IRIDIUM 84 [+]          
1 25530U 98066D   17065.51546648  .00000122  00000-0  36356-4 0  9994
2 25530  86.3964  32.8797 0002259  86.2990 273.8464 14.34215242962280
IRIDIUM 83 [+]          
1 25531U 98066E   17065.54716063  .00000120  00000-0  35874-4 0  9990
2 25531  86.3967  32.9875 0002236  88.0598 272.0853 14.34215685959641
IRIDIUM 20 [+]          
1 25577U 98074A   17065.60653449  .00000102  00000-0  29343-4 0  9998
2 25577  86.3942 298.2810 0002012  85.0008 275.1417 14.34221970953733
IRIDIUM 11 [+]          
1 25578U 98074B   17065.28940510  .00000112  00000-0  33003-4 0  9990
2 25578  86.3942 298.6163 0001933  85.8276  12.4418 14.34221741962655
IRIDIUM 14 [+]          
1 25777U 99032A   17065.52067879 -.00000029  00000-0 -17326-4 0  9990
2 25777  86.3921 266.8517 0001925  80.3530 279.7883 14.34216490939964
IRIDIUM 21 [+]          
1 25778U 99032B   17065.48896226 -.00000018  00000-0 -13490-4 0  9998
2 25778  86.3920 266.8852 0002105  86.3094 273.8343 14.34216814933395
IRIDIUM 91 [+]          
1 27372U 02005A   17065.34621149  .00000181  00000-0  57457-4 0  9999
2 27372  86.3388 330.2766 0001958  74.6593  69.6950 14.34221057796885
IRIDIUM 90 [S]          
1 27373U 02005B   17065.55802775  .00000155  00000-0  40355-4 0  9999
2 27373  86.4477  32.9636 0002327  83.3012 276.8454 14.42942679796556
IRIDIUM 94 [+]          
1 27374U 02005C   17065.57262997  .00000117  00000-0  34587-4 0  9996
2 27374  86.3944 298.6254 0002598  73.6869 307.8467 14.34219165801244
IRIDIUM 95 [+]          
1 27375U 02005D   17065.49584948  .00000182  00000-0  58082-4 0  9999
2 27375  86.3762 330.3471 0002178  82.3489 277.7955 14.34222038796194
IRIDIUM 96 [+]          
1 27376U 02005E   17065.33436593  .00000199  00000-0  63888-4 0  9993
2 27376  86.4034   2.1773 0003356  95.2905 264.8674 14.34221276801377
IRIDIUM 97 [+]          
1 27450U 02031A   17065.58176684  .00000178  00000-0  56331-4 0  9996
2 27450  86.4003   1.7877 0002072  89.7585 270.3848 14.34219877775528
IRIDIUM 98 [+]          
1 27451U 02031B   17065.46138580  .00000052  00000-0  11550-4 0  9992
2 27451  86.3922  65.1583 0002226  92.7139  69.5266 14.34216082776580
